start=new Date('2021-09-27T00:00:00.000Z').valueOf();
sats=[{"ARG_OF_PERICENTER":"72.5833","MEAN_MOTION":"15.06396140","MEAN_ELEMENT_THEORY":"SGP4","MEAN_MOTION_DDOT":"0.0000000000000","REF_FRAME":"TEME","LAUNCH_DATE":"2021-04-29","EPOCH":"2021-09-26T11:34:58.869984","NORAD_CAT_ID":"48287","EPHEMERIS_TYPE":"0","TLE_LINE2":"2 48287  53.0548 177.4442 0002014  72.5833 287.5376 15.06396140 23356","CLASSIFICATION_TYPE":"U","PERIOD":"95.592","ELEMENT_SET_NO":"999","MEAN_MOTION_DOT":"0.00000636","TLE_LINE1":"1 48287U 21036M   21269.48262581  .00000636  00000-0  61621-4 0  9992","MEAN_ANOMALY":"287.5376","COUNTRY_CODE":"US","CENTER_NAME":"EARTH","RCS_SIZE":"LARGE","BSTAR":"0.00006162100000","OBJECT_ID":"2021-036M","INCLINATION":"53.0548","PERIAPSIS":"545.831","DECAY_DATE":null,"OBJECT_TYPE":"PAYLOAD","SEMIMAJOR_AXIS":"6925.360","OBJECT_NAME":"STARLINK-2566","TIME_SYSTEM":"UTC","ECCENTRICITY":"0.00020140","SITE":"AFETR","FILE":"3129258","APOAPSIS":"548.620","RA_OF_ASC_NODE":"177.4442","REV_AT_EPOCH":"2335","GP_ID":"185551143"},{"INCLINATION":"53.0561","BSTAR":"0.00009403700000","OBJECT_ID":"2021-036N","MEAN_ANOMALY":"291.0844","COUNTRY_CODE":"US","CENTER_NAME":"EARTH","RCS_SIZE":"LARGE","TLE_LINE1":"1 48288U 21036N   21269.47891619  .00001120  00000-0  94037-4 0  9998","ELEMENT_SET_NO":"999","MEAN_MOTION_DOT":"0.00001120","TLE_LINE2":"2 48288  53.0561 177.4620 0001510  69.0307 291.0844 15.06411366 23939","CLASSIFICATION_TYPE":"U","EPHEMERIS_TYPE":"0","PERIOD":"95.591","EPOCH":"2021-09-26T11:29:38.358816","NORAD_CAT_ID":"48288","REV_AT_EPOCH":"2393","GP_ID":"185553557","APOAPSIS":"548.224","RA_OF_ASC_NODE":"177.4620","FILE":"3129292","SITE":"AFETR","ECCENTRICITY":"0.00015100","OBJECT_NAME":"STARLINK-2562","TIME_SYSTEM":"UTC","DECAY_DATE":null,"OBJECT_TYPE":"PAYLOAD","SEMIMAJOR_AXIS":"6925.314","PERIAPSIS":"546.133","ARG_OF_PERICENTER":"69.0307","LAUNCH_DATE":"2021-04-29","REF_FRAME":"TEME","MEAN_MOTION_DDOT":"0.0000000000000","MEAN_MOTION":"15.06411366","MEAN_ELEMENT_THEORY":"SGP4"},{"ECCENTRICITY":"0.00021700","OBJECT_NAME":"STARLINK-2545","TIME_SYSTEM":"UTC","DECAY_DATE":null,"OBJECT_TYPE":"PAYLOAD","SEMIMAJOR_AXIS":"6925.378","PERIAPSIS":"545.740","REV_AT_EPOCH":"2335","GP_ID":"185552145","APOAPSIS":"548.745","RA_OF_ASC_NODE":"177.4814","SITE":"AFETR","FILE":"3129258","TLE_LINE1":"1 48289U 21036P   21269.47525520  .00000256  00000-0  36090-4 0  9998","ELEMENT_SET_NO":"999","MEAN_MOTION_DOT":"0.00000256","CLASSIFICATION_TYPE":"U","TLE_LINE2":"2 48289  53.0545 177.4814 0002170  74.0474 286.0754 15.06390543 23354","EPHEMERIS_TYPE":"0","PERIOD":"95.593","EPOCH":"2021-09-26T11:24:22.049280","NORAD_CAT_ID":"48289","INCLINATION":"53.0545","BSTAR":"0.00003609000000","OBJECT_ID":"2021-036P","MEAN_ANOMALY":"286.0754","COUNTRY_CODE":"US","CENTER_NAME":"EARTH","RCS_SIZE":"LARGE","MEAN_MOTION_DDOT":"0.0000000000000","MEAN_MOTION":"15.06390543","MEAN_ELEMENT_THEORY":"SGP4","LAUNCH_DATE":"2021-04-29","REF_FRAME":"TEME","ARG_OF_PERICENTER":"74.0474"},{"GP_ID":"185551896","REV_AT_EPOCH":"2335","FILE":"3129258","SITE":"AFETR","RA_OF_ASC_NODE":"177.5164","APOAPSIS":"548.574","OBJECT_NAME":"STARLINK-2540","TIME_SYSTEM":"UTC","ECCENTRICITY":"0.00019440","PERIAPSIS":"545.881","OBJECT_TYPE":"PAYLOAD","SEMIMAJOR_AXIS":"6925.363","DECAY_DATE":null,"INCLINATION":"53.0549","RCS_SIZE":"LARGE","CENTER_NAME":"EARTH","COUNTRY_CODE":"US","MEAN_ANOMALY":"286.6250","OBJECT_ID":"2021-036Q","BSTAR":"0.00002720600000","MEAN_MOTION_DOT":"0.00000124","ELEMENT_SET_NO":"999","TLE_LINE1":"1 48290U 21036Q   21269.47156253  .00000124  00000-0  27206-4 0  9996","NORAD_CAT_ID":"48290","EPOCH":"2021-09-26T11:19:03.002592","PERIOD":"95.592","TLE_LINE2":"2 48290  53.0549 177.5164 0001944  73.4952 286.6250 15.06395378 23359","EPHEMERIS_TYPE":"0","CLASSIFICATION_TYPE":"U","REF_FRAME":"TEME","LAUNCH_DATE":"2021-04-29","MEAN_MOTION_DDOT":"0.0000000000000","MEAN_ELEMENT_THEORY":"SGP4","MEAN_MOTION":"15.06395378","ARG_OF_PERICENTER":"73.4952"},{"MEAN_MOTION_DDOT":"0.0000000000000","MEAN_ELEMENT_THEORY":"SGP4","MEAN_MOTION":"15.06393743","LAUNCH_DATE":"2021-04-29","REF_FRAME":"TEME","ARG_OF_PERICENTER":"74.0692","ECCENTRICITY":"0.00022140","OBJECT_NAME":"STARLINK-2555","TIME_SYSTEM":"UTC","SEMIMAJOR_AXIS":"6925.368","OBJECT_TYPE":"PAYLOAD","DECAY_DATE":null,"PERIAPSIS":"545.699","GP_ID":"185550644","REV_AT_EPOCH":"2335","RA_OF_ASC_NODE":"177.5229","APOAPSIS":"548.766","SITE":"AFETR","FILE":"3129258","TLE_LINE1":"1 48291U 21036R   21269.46787950  .00000023  00000-0  20452-4 0  9994","MEAN_MOTION_DOT":"0.00000023","ELEMENT_SET_NO":"999","PERIOD":"95.593","EPHEMERIS_TYPE":"0","TLE_LINE2":"2 48291  53.0551 177.5229 0002214  74.0692 286.0541 15.06393743 23355","CLASSIFICATION_TYPE":"U","NORAD_CAT_ID":"48291","EPOCH":"2021-09-26T11:13:44.788800","INCLINATION":"53.0551","BSTAR":"0.00002045200000","OBJECT_ID":"2021-036R","RCS_SIZE":"MEDIUM","CENTER_NAME":"EARTH","MEAN_ANOMALY":"286.0541","COUNTRY_CODE":"US"},{"OBJECT_TYPE":"PAYLOAD","SEMIMAJOR_AXIS":"6925.355","DECAY_DATE":null,"PERIAPSIS":"545.891","ECCENTRICITY":"0.00019190","TIME_SYSTEM":"UTC","OBJECT_NAME":"STARLINK-2542","RA_OF_ASC_NODE":"177.5385","APOAPSIS":"548.549","FILE":"3129258","SITE":"AFETR","GP_ID":"185551394","REV_AT_EPOCH":"2335","PERIOD":"95.592","EPHEMERIS_TYPE":"0","TLE_LINE2":"2 48292  53.0552 177.5385 0001919  68.0992 292.0201 15.06397749 23357","CLASSIFICATION_TYPE":"U","NORAD_CAT_ID":"48292","EPOCH":"2021-09-26T11:07:04.584864","TLE_LINE1":"1 48292U 21036S   21269.46324751  .00001037  00000-0  88530-4 0  9998","MEAN_MOTION_DOT":"0.00001037","ELEMENT_SET_NO":"999","BSTAR":"0.00008853000000","OBJECT_ID":"2021-036S","CENTER_NAME":"EARTH","RCS_SIZE":"LARGE","COUNTRY_CODE":"US","MEAN_ANOMALY":"292.0201","INCLINATION":"53.0552","MEAN_MOTION":"15.06397749","MEAN_ELEMENT_THEORY":"SGP4","MEAN_MOTION_DDOT":"0.0000000000000","LAUNCH_DATE":"2021-04-29","REF_FRAME":"TEME","ARG_OF_PERICENTER":"68.0992"},{"ARG_OF_PERICENTER":"67.9600","LAUNCH_DATE":"2021-04-29","REF_FRAME":"TEME","MEAN_ELEMENT_THEORY":"SGP4","MEAN_MOTION":"15.06395696","MEAN_MOTION_DDOT":"0.0000000000000","BSTAR":"0.00013187000000","OBJECT_ID":"2021-036T","RCS_SIZE":"LARGE","CENTER_NAME":"EARTH","MEAN_ANOMALY":"292.1611","COUNTRY_CODE":"US","INCLINATION":"53.0543","PERIOD":"95.592","CLASSIFICATION_TYPE":"U","TLE_LINE2":"2 48293  53.0543 177.5507 0002085  67.9600 292.1611 15.06395696 23932","EPHEMERIS_TYPE":"0","NORAD_CAT_ID":"48293","EPOCH":"2021-09-26T11:03:07.567200","TLE_LINE1":"1 48293U 21036T   21269.46050425  .00001683  00000-0  13187-3 0  9995","MEAN_MOTION_DOT":"0.00001683","ELEMENT_SET_NO":"999","RA_OF_ASC_NODE":"177.5507","APOAPSIS":"548.671","FILE":"3129293","SITE":"AFETR","GP_ID":"185553989","REV_AT_EPOCH":"2393","OBJECT_TYPE":"PAYLOAD","SEMIMAJOR_AXIS":"6925.362","DECAY_DATE":null,"PERIAPSIS":"545.783","ECCENTRICITY":"0.00020850","OBJECT_NAME":"STARLINK-2550","TIME_SYSTEM":"UTC"},{"ARG_OF_PERICENTER":"79.4705","REF_FRAME":"TEME","LAUNCH_DATE":"2021-04-29","MEAN_MOTION_DDOT":"0.0000000000000","MEAN_ELEMENT_THEORY":"SGP4","MEAN_MOTION":"15.06357159","INCLINATION":"53.0566","RCS_SIZE":"LARGE","CENTER_NAME":"EARTH","COUNTRY_CODE":"US","MEAN_ANOMALY":"280.6485","OBJECT_ID":"2021-036U","BSTAR":"-0.00027290000000","MEAN_MOTION_DOT":"-0.00004339","ELEMENT_SET_NO":"999","TLE_LINE1":"1 48294U 21036U   21269.45687542 -.00004339  00000-0 -27290-3 0  9994","NORAD_CAT_ID":"48294","EPOCH":"2021-09-26T10:57:54.036288","PERIOD":"95.595","TLE_LINE2":"2 48294  53.0566 177.5743 0001790  79.4705 280.6485 15.06357159 23939","EPHEMERIS_TYPE":"0","CLASSIFICATION_TYPE":"U","GP_ID":"185555259","REV_AT_EPOCH":"2393","SITE":"AFETR","FILE":"3129353","RA_OF_ASC_NODE":"177.5743","APOAPSIS":"548.585","OBJECT_NAME":"STARLINK-2533","TIME_SYSTEM":"UTC","ECCENTRICITY":"0.00017900","PERIAPSIS":"546.105","OBJECT_TYPE":"PAYLOAD","SEMIMAJOR_AXIS":"6925.480","DECAY_DATE":null},{"OBJECT_NAME":"STARLINK-2535","TIME_SYSTEM":"UTC","ECCENTRICITY":"0.00020190","PERIAPSIS":"545.798","DECAY_DATE":null,"OBJECT_TYPE":"PAYLOAD","SEMIMAJOR_AXIS":"6925.331","REV_AT_EPOCH":"2393","GP_ID":"185553507","SITE":"AFETR","FILE":"3129289","APOAPSIS":"548.595","RA_OF_ASC_NODE":"177.5925","ELEMENT_SET_NO":"999","MEAN_MOTION_DOT":"0.00000999","TLE_LINE1":"1 48295U 21036V   21269.45312727  .00000999  00000-0  85972-4 0  9993","EPOCH":"2021-09-26T10:52:30.196128","NORAD_CAT_ID":"48295","EPHEMERIS_TYPE":"0","TLE_LINE2":"2 48295  53.0577 177.5925 0002019  68.1968 291.9236 15.06405609 23938","CLASSIFICATION_TYPE":"U","PERIOD":"95.592","INCLINATION":"53.0577","COUNTRY_CODE":"US","MEAN_ANOMALY":"291.9236","CENTER_NAME":"EARTH","RCS_SIZE":"LARGE","BSTAR":"0.00008597200000","OBJECT_ID":"2021-036V","MEAN_MOTION_DDOT":"0.0000000000000","MEAN_MOTION":"15.06405609","MEAN_ELEMENT_THEORY":"SGP4","REF_FRAME":"TEME","LAUNCH_DATE":"2021-04-29","ARG_OF_PERICENTER":"68.1968"},{"COUNTRY_CODE":"US","MEAN_ANOMALY":"284.2811","RCS_SIZE":"LARGE","CENTER_NAME":"EARTH","BSTAR":"-0.00002419400000","OBJECT_ID":"2021-036W","INCLINATION":"53.0551","EPOCH":"2021-09-26T21:55:58.899360","NORAD_CAT_ID":"48296","CLASSIFICATION_TYPE":"U","TLE_LINE2":"2 48296  53.0551 175.5229 0001703  75.8368 284.2811 15.06396439 23422","EPHEMERIS_TYPE":"0","PERIOD":"95.592","ELEMENT_SET_NO":"999","MEAN_MOTION_DOT":"-0.00000642","TLE_LINE1":"1 48296U 21036W   21269.91387615 -.00000642  00000-0 -24194-4 0  9999","SITE":"AFETR","FILE":"3129566","APOAPSIS":"548.404","RA_OF_ASC_NODE":"175.5229","REV_AT_EPOCH":"2342","GP_ID":"185583045","PERIAPSIS":"546.045","DECAY_DATE":null,"OBJECT_TYPE":"PAYLOAD","SEMIMAJOR_AXIS":"6925.359","OBJECT_NAME":"STARLINK-2546","TIME_SYSTEM":"UTC","ECCENTRICITY":"0.00017030","ARG_OF_PERICENTER":"75.8368","REF_FRAME":"TEME","LAUNCH_DATE":"2021-04-29","MEAN_MOTION":"15.06396439","MEAN_ELEMENT_THEORY":"SGP4","MEAN_MOTION_DDOT":"0.0000000000000"}];
